[{"OBJECT_NAME":"STARLINK-31911","OBJECT_ID":"2024-150E","EPOCH":"2026-03-09T21:54:11.574144","MEAN_MOTION":15.30197119,"ECCENTRICITY":0.00014401,"INCLINATION":53.161,"RA_OF_ASC_NODE":306.1203,"ARG_OF_PERICENTER":114.2645,"MEAN_ANOMALY":245.8506,"EPHEMERIS_TYPE":0,"CLASSIFICATION_TYPE":"U","NORAD_CAT_ID":60587,"ELEMENT_SET_NO":999,"REV_AT_EPOCH":8799,"BSTAR":-4.6184632e-5,"MEAN_MOTION_DOT":-1.727e-5,"MEAN_MOTION_DDOT":0},{"OBJECT_NAME":"OBJECT D","OBJECT_ID":"2021-102D","EPOCH":"2026-03-09T14:47:14.426880","MEAN_MOTION":15.2846442,"ECCENTRICITY":0.0009157,"INCLINATION":97.3342,"RA_OF_ASC_NODE":112.2633,"ARG_OF_PERICENTER":187.6206,"MEAN_ANOMALY":172.4897,"EPHEMERIS_TYPE":0,"CLASSIFICATION_TYPE":"U","NORAD_CAT_ID":49398,"ELEMENT_SET_NO":999,"REV_AT_EPOCH":23880,"BSTAR":0.00046011,"MEAN_MOTION_DOT":0.00012697,"MEAN_MOTION_DDOT":0}]
